ELYSIUM STAR 2 & LFF    
1 43760U 18099C   24284.55485897  .00172725  00000+0  32430-2 0  9995
2 43760  97.4983 354.0939 0006005 224.1695 135.9076 15.47954351320926
